H1 CPF 01  gfz 2022 01 21 01  5211 tandemx   
H2 1003001  6202 36605    2022 01 21 00 59 42 2022 01 26 00 00 42   120 1 1  0 0 0
H9
10 0 59603   9342.000000  0   -3366522.662  -4941308.829  -3429577.546
10 0 59603   9462.000000  0   -3746229.698  -5158375.229  -2619040.420
10 0 59603   9582.000000  0   -4063572.016  -5279395.960  -1762511.367
10 0 59603   9702.000000  0   -4311262.059  -5303332.332   -875004.128
10 0 59603   9822.000000  0   -4483228.128  -5230968.298     27892.955
10 0 59603   9942.000000  0   -4574758.946  -5064881.178    930296.990
10 0 59603  10062.000000  0   -4582622.130  -4809375.644   1816318.868
10 0 59603  10182.000000  0   -4505152.307  -4470381.634   2670352.649
10 0 59603  10302.000000  0   -4342307.209  -4055319.955   3477358.539
10 0 59603  10422.000000  0   -4095690.963  -3572939.367   4223134.246
10 0 59603  10542.000000  0   -3768543.129  -3033128.518   4894569.419
10 0 59603  10662.000000  0   -3365694.358  -2446708.060   5479875.865
10 0 59603  10782.000000  0   -2893491.538  -1825210.138   5968791.588
10 0 59603  10902.000000  0   -2359693.445  -1180648.815   6352757.288
10 0 59603  11022.000000  0   -1773338.568   -525284.284   6625061.830
10 0 59603  11142.000000  0   -1144586.898    128612.523   6780952.247
10 0 59603  11262.000000  0    -484542.555    768988.026   6817709.839
10 0 59603  11382.000000  0     194941.916   1384227.235   6734695.108
10 0 59603  11502.000000  0     881477.873   1963364.153   6533358.485
10 0 59603  11622.000000  0    1562365.952   2496277.269   6217215.921
10 0 59603  11742.000000  0    2224829.881   2973866.388   5791791.200
10 0 59603  11862.000000  0    2856256.298   3388210.304   5264526.217
10 0 59603  11982.000000  0    3444437.715   3732702.398   4644656.988
10 0 59603  12102.000000  0    3977810.982   4002159.109   3943055.680
10 0 59603  12222.000000  0    4445688.238   4192902.445   3172046.705
10 0 59603  12342.000000  0    4838479.001   4302813.056   2345189.810
10 0 59603  12462.000000  0    5147889.975   4331350.262   1477039.423
10 0 59603  12582.000000  0    5367104.241   4279540.880    582884.029
10 0 59603  12702.000000  0    5490931.671   4149935.184   -321531.211
10 0 59603  12822.000000  0    5515926.136   3946531.464  -1220290.926
10 0 59603  12942.000000  0    5440468.089   3674671.264  -2097597.890
10 0 59603  13062.000000  0    5264809.964   3340907.722  -2938057.744
10 0 59603  13182.000000  0    4991084.031   2952851.842  -3726953.262
10 0 59603  13302.000000  0    4623273.491   2519001.036  -4450504.166
10 0 59603  13422.000000  0    4167146.182   2048551.948  -5096106.520
10 0 59603  13542.000000  0    3630155.032   1551204.391  -5652545.556
10 0 59603  13662.000000  0    3021308.094   1036961.730  -6110181.628
10 0 59603  13782.000000  0    2351010.407    515931.011  -6461106.758
10 0 59603  13902.000000  0    1630882.348     -1872.753  -6699269.077
10 0 59603  14022.000000  0     873559.008   -506714.888  -6820567.575
10 0 59603  14142.000000  0      92469.902   -989320.291  -6822915.896
10 0 59603  14262.000000  0    -698394.490  -1441039.096  -6706272.431
10 0 59603  14382.000000  0   -1484726.669  -1853997.285  -6472641.556
10 0 59603  14502.000000  0   -2252155.413  -2221231.687  -6126043.388
10 0 59603  14622.000000  0   -2986502.718  -2536806.010  -5672451.295
10 0 59603  14742.000000  0   -3674041.954  -2795907.395  -5119700.302
10 0 59603  14862.000000  0   -4301755.661  -2994922.512  -4477363.800
10 0 59603  14982.000000  0   -4857585.388  -3131489.920  -3756597.984
10 0 59603  15102.000000  0   -5330669.310  -3204527.892  -2969957.378
10 0 59603  15222.000000  0   -5711562.954  -3214236.980  -2131182.331
10 0 59603  15342.000000  0   -5992436.531  -3162076.270  -1254961.172
10 0 59603  15462.000000  0   -6167244.025  -3050713.806   -356671.834
10 0 59603  15582.000000  0   -6231859.211  -2883951.456    547892.732
10 0 59603  15702.000000  0   -6184175.152  -2666626.379   1442809.723
10 0 59603  15822.000000  0   -6024162.189  -2404490.738   2312317.062
10 0 59603  15942.000000  0   -5753882.544  -2104072.509   3141099.565
10 0 59603  16062.000000  0   -5377464.851  -1772522.369   3914566.135
10 0 59603  16182.000000  0   -4901034.621  -1417448.947   4619113.215
10 0 59603  16302.000000  0   -4332605.373  -1046747.695   5242364.476
10 0 59603  16422.000000  0   -3681936.152   -668428.851   5773386.326
10 0 59603  16542.000000  0   -2960356.147   -290446.443   6202877.353
10 0 59603  16662.000000  0   -2180559.239     79467.698   6523326.365
10 0 59603  16782.000000  0   -1356374.377    433959.571   6729136.668
10 0 59603  16902.000000  0    -502517.564    766196.847   6816717.698
10 0 59603  17022.000000  0     365671.310   1069999.199   6784543.275
10 0 59603  17142.000000  0    1232503.047   1339952.608   6633176.398
10 0 59603  17262.000000  0    2082221.690   1571506.184   6365259.933
10 0 59603  17382.000000  0    2899289.915   1761048.954   5985473.276
10 0 59603  17502.000000  0    3668674.332   1905966.361   5500456.429
10 0 59603  17622.000000  0    4376125.178   2004675.194   4918699.216
10 0 59603  17742.000000  0    5008444.203   2056637.305   4250399.557
10 0 59603  17862.000000  0    5553740.140   2062351.662   3507290.994
10 0 59603  17982.000000  0    6001661.971   2023322.459   2702436.199
10 0 59603  18102.000000  0    6343602.796   1942006.305   1849997.824
10 0 59603  18222.000000  0    6572875.068   1821738.605    964985.696
10 0 59603  18342.000000  0    6684846.675   1666639.977     62985.517
10 0 59603  18462.000000  0    6677037.219   1481507.105   -840123.968
10 0 59603  18582.000000  0    6549169.636   1271688.837  -1728459.771
10 0 59603  18702.000000  0    6303179.003   1042950.474  -2586420.747
10 0 59603  18822.000000  0    5943176.851    801331.167  -3398968.476
10 0 59603  18942.000000  0    5475371.539    552998.559  -4151894.214
10 0 59603  19062.000000  0    4907948.300    304103.319  -4832067.210
10 0 59603  19182.000000  0    4250912.967     60637.344  -5427658.395
10 0 59603  19302.000000  0    3515905.168   -171700.380  -5928337.689
10 0 59603  19422.000000  0    2715984.299   -387628.085  -6325444.063
10 0 59603  19542.000000  0    1865391.614   -582393.546  -6612123.932
10 0 59603  19662.000000  0     979296.603   -751872.298  -6783437.939
10 0 59603  19782.000000  0      73528.894   -892650.367  -6836438.319
10 0 59603  19902.000000  0    -835699.847  -1002089.312  -6770213.004
10 0 59603  20022.000000  0   -1732078.765  -1078374.126  -6585899.896
10 0 59603  20142.000000  0   -2599484.391  -1120542.656  -6286669.397
10 0 59603  20262.000000  0   -3422263.896  -1128496.352  -5877674.477
10 0 59603  20382.000000  0   -4185513.340  -1102992.686  -5365972.737
10 0 59603  20502.000000  0   -4875349.248  -1045618.685  -4760416.090
10 0 59603  20622.000000  0   -5479165.240   -958746.045  -4071508.702
10 0 59603  20742.000000  0   -5985870.402   -845468.701  -3311235.404
10 0 59603  20862.000000  0   -6386104.574   -709523.273  -2492860.775
10 0 59603  20982.000000  0   -6672423.619   -555193.998  -1630701.651
10 0 59603  21102.000000  0   -6839451.106   -387204.954   -739877.271
10 0 59603  21222.000000  0   -6883991.009   -210599.945    163961.012
10 0 59603  21342.000000  0   -6805095.130    -30614.187   1064911.266
10 0 59603  21462.000000  0   -6604087.939    147458.030   1947108.498
10 0 59603  21582.000000  0   -6284545.046    318397.002   2795013.476
10 0 59603  21702.000000  0   -5852225.805    477189.483   3593695.219
10 0 59603  21822.000000  0   -5314961.557    619155.138   4329100.431
10 0 59603  21942.000000  0   -4682503.946    740063.996   4988303.875
10 0 59603  22062.000000  0   -3966337.293    836242.286   5559735.036
10 0 59603  22182.000000  0   -3179461.058    904664.511   6033378.287
10 0 59603  22302.000000  0   -2336145.734    943029.195   6400944.404
10 0 59603  22422.000000  0   -1451667.422    949817.798   6656010.476
10 0 59603  22542.000000  0    -542026.355    924335.426   6794125.084
10 0 59603  22662.000000  0     376343.152    866732.123   6812880.024
10 0 59603  22782.000000  0    1286868.516    778004.816   6711949.248
10 0 59603  22902.000000  0    2173136.515    659980.338   6493094.271
10 0 59603  23022.000000  0    3019188.062    515279.216   6160135.880
10 0 59603  23142.000000  0    3809806.876    347260.736   5718892.355
10 0 59603  23262.000000  0    4530796.219    159950.193   5177083.235
10 0 59603  23382.000000  0    5169238.772    -42050.762   4544200.389
10 0 59603  23502.000000  0    5713735.747   -253668.905   3831347.519
10 0 59603  23622.000000  0    6154620.653   -469476.391   3051049.117
10 0 59603  23742.000000  0    6484141.990   -683818.227   2217030.641
10 0 59603  23862.000000  0    6696607.919   -890947.411   1343973.685
10 0 59603  23982.000000  0    6788491.591  -1085164.547    447253.433
10 0 59603  24102.000000  0    6758495.695  -1260957.950   -457339.548
10 0 59603  24222.000000  0    6607569.695  -1413141.122  -1353887.444
10 0 59603  24342.000000  0    6338881.763  -1536983.246  -2226633.646
10 0 59603  24462.000000  0    5957746.048  -1628329.920  -3060267.157
10 0 59603  24582.000000  0    5471507.959  -1683711.123  -3840195.200
10 0 59603  24702.000000  0    4889391.526  -1700433.378  -4552799.315
10 0 59603  24822.000000  0    4222313.366  -1676654.380  -5185670.433
10 0 59603  24942.000000  0    3482667.207  -1611439.498  -5727819.032
10 0 59603  25062.000000  0    2684084.897  -1504798.326  -6169856.098
10 0 59603  25182.000000  0    1841181.196  -1357700.418  -6504144.639
10 0 59603  25302.000000  0     969284.943  -1172070.620  -6724921.463
10 0 59603  25422.000000  0      84162.232   -950765.330  -6828386.128
10 0 59603  25542.000000  0    -798263.810   -697528.981  -6812759.048
10 0 59603  25662.000000  0   -1662192.678   -416931.954  -6678308.858
10 0 59603  25782.000000  0   -2492223.471   -114289.833  -6427347.939
99
